{
  "type": "FeatureCollection",
  "features": [
    {
      "type": "Feature",
      "geometry": {
        "type": "Polygon",
        "coordinates": [
          [
            [
              -94.94575696358851,
              29.575906106151592
            ],
            [
              -94.94596785930194,
              29.576838894664036
            ],
            [
              -94.94813688154471,
              29.57716445142797
            ],
            [
              -94.94856848635509,
              29.578205354529903
            ],
            [
              -94.94958915782456,
              29.57839578838944
            ],
            [
              -94.95001393107125,
              29.57901464515535
            ],
            [
              -94.9491614818724,
              29.579744278975976
            ],
            [
              -94.94903492007957,
              29.581239940485172
            ],
            [
              -94.9478311458139,
              29.582410458199472
            ],
            [
              -94.94932838539535,
              29.582450031155616
            ],
            [
              -94.94964950928748,
              29.58343130984392
            ],
            [
              -94.94915468838401,
              29.583774882215952
            ],
            [
              -94.94763160418617,
              29.583830882982745
            ],
            [
              -94.94729342801399,
              29.584750856390137
            ],
            [
              -94.94622721769049,
              29.584833605662883
            ],
            [
              -94.94545678367183,
              29.58639664488036
            ],
            [
              -94.94304115663797,
              29.586818435718918
            ],
            [
              -94.94287493216044,
              29.587587245360734
            ],
            [
              -94.94183206274906,
              29.58792362648267
            ],
            [
              -94.9412442301868,
              29.58772081590548
            ],
            [
              -94.94088123506835,
              29.586759528970276
            ],
            [
              -94.94043960027238,
              29.586587651367243
            ],
            [
              -94.93790683292252,
              29.587355748237577
            ],
            [
              -94.93640664982131,
              29.587273669795355
            ],
            [
              -94.93512889903111,
              29.586589227693292
            ],
            [
              -94.93504094425997,
              29.58751223636805
            ],
            [
              -94.93411868914264,
              29.58786198612617
            ],
            [
              -94.93361096673976,
              29.58753307844608
            ],
            [
              -94.93346665014421,
              29.586650079494824
            ],
            [
              -94.93243635841806,
              29.586363502122868
            ],
            [
              -94.93187761336019,
              29.5851240226621
            ],
            [
              -94.93078952643927,
              29.584859355830737
            ],
            [
              -94.93067732246278,
              29.583557089074624
            ],
            [
              -94.93142374140797,
              29.58301595302811
            ],
            [
              -94.93135050675106,
              29.582228869381524
            ],
            [
              -94.93196169451957,
              29.581870250525014
            ],
            [
              -94.93123978414225,
              29.58044543047953
            ],
            [
              -94.93164065215339,
              29.579814497705925
            ],
            [
              -94.93230440938531,
              29.579746647369554
            ],
            [
              -94.93202877459292,
              29.578865744052585
            ],
            [
              -94.93228511356578,
              29.577951667255075
            ],
            [
              -94.93313070697145,
              29.5769868188088
            ],
            [
              -94.93453016649583,
              29.57664170420737
            ],
            [
              -94.93502425072393,
              29.57595315255913
            ],
            [
              -94.93664101460998,
              29.575419924841544
            ],
            [
              -94.93768440922265,
              29.57423668985638
            ],
            [
              -94.93868305284454,
              29.574336817254157
            ],
            [
              -94.93888830086696,
              29.575532798524627
            ],
            [
              -94.93936618454728,
              29.574638389049227
            ],
            [
              -94.94020028097323,
              29.57445388282457
            ],
            [
              -94.940581715638,
              29.57370914974153
            ],
            [
              -94.9416286975152,
              29.573862460356438
            ],
            [
              -94.94254453593815,
              29.573520052659468
            ],
            [
              -94.9431481444196,
              29.574081311289593
            ],
            [
              -94.94460006298976,
              29.574543937947013
            ],
            [
              -94.94498932487208,
              29.57538696399552
            ],
            [
              -94.94575696358851,
              29.575906106151592
            ]
          ]
        ]
      },
      "properties": {
        "case_id": "HSC-BAYPORT-2019-05-10",
        "observation_time_utc": "2019-05-10 23:20:00",
        "area_km2": 2.0521,
        "centroid_lat": 29.581051,
        "centroid_lon": -94.940061,
        "polygon_source": "SYNTHETIC - forward Lagrangian simulation",
        "polygon_is_remote_sensing_observation": false,
        "provenance": "Geometry generated by scripts/0_make_spill_observation.py: 3000 particles advected by NOAA CO-OPS observed currents (station g08010 bin 30) plus 0.025-0.035 windage on NOAA CO-OPS observed wind (station 8771013), with 2.0 m2/s eddy diffusion, from a real AIS-derived release point/time. The release, the wind and the current are real; the polygon geometry is not an observation.",
        "forward_model": {
          "n_particles": 3000,
          "dt_s": 120,
          "initial_scatter_m": 50,
          "windage_range": [
            0.025,
            0.035
          ],
          "eddy_diffusivity_m2s": 2,
          "particle_buffer_m": 80,
          "rng_seed": 20190510,
          "true_age_h": 3,
          "true_centroid_displacement_m": 1957.3,
          "true_centroid_displacement_toward_deg": 167.3
        }
      }
    }
  ]
}